{"fetched_at":"2026-03-29T16:36:15Z","count":15609,"tles":[{"name":"STARLINK-32315","line1":"1 60740U 24152W   26087.72791738  .00000959  00000+0  44500-4 0  9997","line2":"2 60740  53.1599 180.1434 0001357  76.3744 283.7408 15.30195564 89636","category":"Starlink"}]}